{
    "links": {
        "self": "http://www.neowsapp.com/rest/v1/neo/3728643?api_key=iIulBulltgU6a56xZRHN4H3l9WmuAYTsLGpBGhQ2"
    },
    "id": "3728643",
    "neo_reference_id": "3728643",
    "name": "(2015 SR6)",
    "designation": "2015 SR6",
    "nasa_jpl_url": "http://ssd.jpl.nasa.gov/sbdb.cgi?sstr=3728643",
    "absolute_magnitude_h": 23.8,
    "estimated_diameter": {
        "kilometers": {
            "estimated_diameter_min": 0.046190746,
            "estimated_diameter_max": 0.1032856481
        },
        "meters": {
            "estimated_diameter_min": 46.1907460282,
            "estimated_diameter_max": 103.2856480504
        },
        "miles": {
            "estimated_diameter_min": 0.0287015901,
            "estimated_diameter_max": 0.0641787064
        },
        "feet": {
            "estimated_diameter_min": 151.544447199,
            "estimated_diameter_max": 338.8636855496
        }
    },
    "is_potentially_hazardous_asteroid": false,
    "close_approach_data": [
        {
            "close_approach_date": "2015-09-17",
            "close_approach_date_full": "2015-Sep-17 22:58",
            "epoch_date_close_approach": 1442530680000,
            "relative_velocity": {
                "kilometers_per_second": "10.6013931053",
                "kilometers_per_hour": "38165.0151791664",
                "miles_per_hour": "23714.2562372993"
            },
            "miss_distance": {
                "astronomical": "0.0540251415",
                "lunar": "21.0157800435",
                "kilometers": "8082046.094848605",
                "miles": "5021950.572396549"
            },
            "orbiting_body": "Earth"
        }
    ],
    "orbital_data": {
        "orbit_id": "13",
        "orbit_determination_date": "2017-04-06 08:31:46",
        "first_observation_date": "2015-09-23",
        "last_observation_date": "2015-10-03",
        "data_arc_in_days": 10,
        "observations_used": 69,
        "orbit_uncertainty": "8",
        "minimum_orbit_intersection": ".0257963",
        "jupiter_tisserand_invariant": "3.118",
        "epoch_osculation": "2457293.5",
        "eccentricity": ".6091367066990083",
        "semi_major_axis": "2.593225614025827",
        "inclination": "7.13801346806295",
        "ascending_node_longitude": "353.1045673723304",
        "orbital_period": "1525.312680652477",
        "perihelion_distance": "1.013596703770621",
        "perihelion_argument": "337.2636231221651",
        "aphelion_distance": "4.172854524281033",
        "perihelion_time": "2457265.204804208372",
        "mean_anomaly": "6.678152364555663",
        "mean_motion": ".2360171816351806",
        "equinox": "J2000",
        "orbit_class": {
            "orbit_class_type": "APO",
            "orbit_class_description": "Near-Earth asteroid orbits which cross the Earth’s orbit similar to that of 1862 Apollo",
            "orbit_class_range": "a (semi-major axis) > 1.0 AU; q (perihelion) < 1.017 AU"
        }
    },
    "is_sentry_object": false
}